<?xml version="1.0" encoding="UTF-8"?>
<ndm xmlns:xsi="http://www.w3.org/2001/XMLSchema-instance" xsi:noNamespaceSchemaLocation="https://sanaregistry.org/r/ndmxml_unqualified/ndmxml-2.0.0-master-2.0.xsd">
<omm id="CCSDS_OMM_VERS" version="2.0">
<header><CREATION_DATE/><ORIGINATOR/></header><body><segment><metadata><OBJECT_NAME>KUIPER-00147</OBJECT_NAME><OBJECT_ID>2025-217G</OBJECT_ID><CENTER_NAME>EARTH</CENTER_NAME><REF_FRAME>TEME</REF_FRAME><TIME_SYSTEM>UTC</TIME_SYSTEM><MEAN_ELEMENT_THEORY>SGP4</MEAN_ELEMENT_THEORY></metadata><data><meanElements><EPOCH>2025-12-04T08:00:01.999872</EPOCH><MEAN_MOTION>15.14894967</MEAN_MOTION><ECCENTRICITY>.00095728</ECCENTRICITY><INCLINATION>51.8830</INCLINATION><RA_OF_ASC_NODE>106.9904</RA_OF_ASC_NODE><ARG_OF_PERICENTER>344.1627</ARG_OF_PERICENTER><MEAN_ANOMALY>16.9480</MEAN_ANOMALY></meanElements><tleParameters><EPHEMERIS_TYPE>0</EPHEMERIS_TYPE><CLASSIFICATION_TYPE>U</CLASSIFICATION_TYPE><NORAD_CAT_ID>65768</NORAD_CAT_ID><ELEMENT_SET_NO>999</ELEMENT_SET_NO><REV_AT_EPOCH>465</REV_AT_EPOCH><BSTAR>-.46541281E-1</BSTAR><MEAN_MOTION_DOT>-.811614E-2</MEAN_MOTION_DOT><MEAN_MOTION_DDOT>0</MEAN_MOTION_DDOT></tleParameters></data></segment></body></omm>
<omm id="CCSDS_OMM_VERS" version="2.0">
<header><CREATION_DATE/><ORIGINATOR/></header><body><segment><metadata><OBJECT_NAME>KUIPER-00148</OBJECT_NAME><OBJECT_ID>2025-217H</OBJECT_ID><CENTER_NAME>EARTH</CENTER_NAME><REF_FRAME>TEME</REF_FRAME><TIME_SYSTEM>UTC</TIME_SYSTEM><MEAN_ELEMENT_THEORY>SGP4</MEAN_ELEMENT_THEORY></metadata><data><meanElements><EPOCH>2025-12-04T08:00:01.999872</EPOCH><MEAN_MOTION>15.19429932</MEAN_MOTION><ECCENTRICITY>.00079239</ECCENTRICITY><INCLINATION>51.8700</INCLINATION><RA_OF_ASC_NODE>107.0004</RA_OF_ASC_NODE><ARG_OF_PERICENTER>9.7865</ARG_OF_PERICENTER><MEAN_ANOMALY>38.4814</MEAN_ANOMALY></meanElements><tleParameters><EPHEMERIS_TYPE>0</EPHEMERIS_TYPE><CLASSIFICATION_TYPE>U</CLASSIFICATION_TYPE><NORAD_CAT_ID>65769</NORAD_CAT_ID><ELEMENT_SET_NO>999</ELEMENT_SET_NO><REV_AT_EPOCH>318</REV_AT_EPOCH><BSTAR>.29300673E-2</BSTAR><MEAN_MOTION_DOT>.63171E-3</MEAN_MOTION_DOT><MEAN_MOTION_DDOT>0</MEAN_MOTION_DDOT></tleParameters></data></segment></body></omm>
<omm id="CCSDS_OMM_VERS" version="2.0">
<header><CREATION_DATE/><ORIGINATOR/></header><body><segment><metadata><OBJECT_NAME>KUIPER-00150</OBJECT_NAME><OBJECT_ID>2025-217J</OBJECT_ID><CENTER_NAME>EARTH</CENTER_NAME><REF_FRAME>TEME</REF_FRAME><TIME_SYSTEM>UTC</TIME_SYSTEM><MEAN_ELEMENT_THEORY>SGP4</MEAN_ELEMENT_THEORY></metadata><data><meanElements><EPOCH>2025-12-04T08:00:01.999872</EPOCH><MEAN_MOTION>14.86734147</MEAN_MOTION><ECCENTRICITY>.00093126</ECCENTRICITY><INCLINATION>51.9109</INCLINATION><RA_OF_ASC_NODE>112.3972</RA_OF_ASC_NODE><ARG_OF_PERICENTER>358.7428</ARG_OF_PERICENTER><MEAN_ANOMALY>171.1183</MEAN_ANOMALY></meanElements><tleParameters><EPHEMERIS_TYPE>0</EPHEMERIS_TYPE><CLASSIFICATION_TYPE>U</CLASSIFICATION_TYPE><NORAD_CAT_ID>65770</NORAD_CAT_ID><ELEMENT_SET_NO>999</ELEMENT_SET_NO><REV_AT_EPOCH>517</REV_AT_EPOCH><BSTAR>-.38742389E-1</BSTAR><MEAN_MOTION_DOT>-.332329E-2</MEAN_MOTION_DOT><MEAN_MOTION_DDOT>0</MEAN_MOTION_DDOT></tleParameters></data></segment></body></omm>
<omm id="CCSDS_OMM_VERS" version="2.0">
<header><CREATION_DATE/><ORIGINATOR/></header><body><segment><metadata><OBJECT_NAME>KUIPER-00151</OBJECT_NAME><OBJECT_ID>2025-217K</OBJECT_ID><CENTER_NAME>EARTH</CENTER_NAME><REF_FRAME>TEME</REF_FRAME><TIME_SYSTEM>UTC</TIME_SYSTEM><MEAN_ELEMENT_THEORY>SGP4</MEAN_ELEMENT_THEORY></metadata><data><meanElements><EPOCH>2025-12-04T08:00:01.999872</EPOCH><MEAN_MOTION>15.12722434</MEAN_MOTION><ECCENTRICITY>.00023724</ECCENTRICITY><INCLINATION>51.8780</INCLINATION><RA_OF_ASC_NODE>107.5394</RA_OF_ASC_NODE><ARG_OF_PERICENTER>330.9966</ARG_OF_PERICENTER><MEAN_ANOMALY>202.2514</MEAN_ANOMALY></meanElements><tleParameters><EPHEMERIS_TYPE>0</EPHEMERIS_TYPE><CLASSIFICATION_TYPE>U</CLASSIFICATION_TYPE><NORAD_CAT_ID>65771</NORAD_CAT_ID><ELEMENT_SET_NO>999</ELEMENT_SET_NO><REV_AT_EPOCH>554</REV_AT_EPOCH><BSTAR>.21569148E-3</BSTAR><MEAN_MOTION_DOT>.3526E-4</MEAN_MOTION_DOT><MEAN_MOTION_DDOT>0</MEAN_MOTION_DDOT></tleParameters></data></segment></body></omm>
<omm id="CCSDS_OMM_VERS" version="2.0">
<header><CREATION_DATE/><ORIGINATOR/></header><body><segment><metadata><OBJECT_NAME>KUIPER-00152</OBJECT_NAME><OBJECT_ID>2025-217L</OBJECT_ID><CENTER_NAME>EARTH</CENTER_NAME><REF_FRAME>TEME</REF_FRAME><TIME_SYSTEM>UTC</TIME_SYSTEM><MEAN_ELEMENT_THEORY>SGP4</MEAN_ELEMENT_THEORY></metadata><data><meanElements><EPOCH>2025-12-03T23:34:34.894848</EPOCH><MEAN_MOTION>15.38695738</MEAN_MOTION><ECCENTRICITY>.00021756</ECCENTRICITY><INCLINATION>51.8700</INCLINATION><RA_OF_ASC_NODE>106.3043</RA_OF_ASC_NODE><ARG_OF_PERICENTER>288.2585</ARG_OF_PERICENTER><MEAN_ANOMALY>71.8165</MEAN_ANOMALY></meanElements><tleParameters><EPHEMERIS_TYPE>0</EPHEMERIS_TYPE><CLASSIFICATION_TYPE>U</CLASSIFICATION_TYPE><NORAD_CAT_ID>65772</NORAD_CAT_ID><ELEMENT_SET_NO>999</ELEMENT_SET_NO><REV_AT_EPOCH>1070</REV_AT_EPOCH><BSTAR>.1244037E-2</BSTAR><MEAN_MOTION_DOT>.48234E-3</MEAN_MOTION_DOT><MEAN_MOTION_DDOT>0</MEAN_MOTION_DDOT></tleParameters></data></segment></body></omm>
<omm id="CCSDS_OMM_VERS" version="2.0">
<header><CREATION_DATE/><ORIGINATOR/></header><body><segment><metadata><OBJECT_NAME>KUIPER-00153</OBJECT_NAME><OBJECT_ID>2025-217M</OBJECT_ID><CENTER_NAME>EARTH</CENTER_NAME><REF_FRAME>TEME</REF_FRAME><TIME_SYSTEM>UTC</TIME_SYSTEM><MEAN_ELEMENT_THEORY>SGP4</MEAN_ELEMENT_THEORY></metadata><data><meanElements><EPOCH>2025-12-03T15:17:02.148288</EPOCH><MEAN_MOTION>15.10831049</MEAN_MOTION><ECCENTRICITY>.00120646</ECCENTRICITY><INCLINATION>51.8770</INCLINATION><RA_OF_ASC_NODE>114.3800</RA_OF_ASC_NODE><ARG_OF_PERICENTER>347.4333</ARG_OF_PERICENTER><MEAN_ANOMALY>12.6340</MEAN_ANOMALY></meanElements><tleParameters><EPHEMERIS_TYPE>0</EPHEMERIS_TYPE><CLASSIFICATION_TYPE>U</CLASSIFICATION_TYPE><NORAD_CAT_ID>65773</NORAD_CAT_ID><ELEMENT_SET_NO>999</ELEMENT_SET_NO><REV_AT_EPOCH>1056</REV_AT_EPOCH><BSTAR>.82840827E-3</BSTAR><MEAN_MOTION_DOT>.13689E-3</MEAN_MOTION_DOT><MEAN_MOTION_DDOT>0</MEAN_MOTION_DDOT></tleParameters></data></segment></body></omm>
<omm id="CCSDS_OMM_VERS" version="2.0">
<header><CREATION_DATE/><ORIGINATOR/></header><body><segment><metadata><OBJECT_NAME>KUIPER-00155</OBJECT_NAME><OBJECT_ID>2025-217N</OBJECT_ID><CENTER_NAME>EARTH</CENTER_NAME><REF_FRAME>TEME</REF_FRAME><TIME_SYSTEM>UTC</TIME_SYSTEM><MEAN_ELEMENT_THEORY>SGP4</MEAN_ELEMENT_THEORY></metadata><data><meanElements><EPOCH>2025-12-03T15:56:50.533728</EPOCH><MEAN_MOTION>15.37113801</MEAN_MOTION><ECCENTRICITY>.00066616</ECCENTRICITY><INCLINATION>51.8640</INCLINATION><RA_OF_ASC_NODE>108.6258</RA_OF_ASC_NODE><ARG_OF_PERICENTER>337.3121</ARG_OF_PERICENTER><MEAN_ANOMALY>22.7570</MEAN_ANOMALY></meanElements><tleParameters><EPHEMERIS_TYPE>0</EPHEMERIS_TYPE><CLASSIFICATION_TYPE>U</CLASSIFICATION_TYPE><NORAD_CAT_ID>65774</NORAD_CAT_ID><ELEMENT_SET_NO>999</ELEMENT_SET_NO><REV_AT_EPOCH>1064</REV_AT_EPOCH><BSTAR>.15322287E-2</BSTAR><MEAN_MOTION_DOT>.56599E-3</MEAN_MOTION_DOT><MEAN_MOTION_DDOT>0</MEAN_MOTION_DDOT></tleParameters></data></segment></body></omm>
<omm id="CCSDS_OMM_VERS" version="2.0">
<header><CREATION_DATE/><ORIGINATOR/></header><body><segment><metadata><OBJECT_NAME>KUIPER-00156</OBJECT_NAME><OBJECT_ID>2025-217P</OBJECT_ID><CENTER_NAME>EARTH</CENTER_NAME><REF_FRAME>TEME</REF_FRAME><TIME_SYSTEM>UTC</TIME_SYSTEM><MEAN_ELEMENT_THEORY>SGP4</MEAN_ELEMENT_THEORY></metadata><data><meanElements><EPOCH>2025-12-03T15:59:38.693184</EPOCH><MEAN_MOTION>15.38505501</MEAN_MOTION><ECCENTRICITY>.00023294</ECCENTRICITY><INCLINATION>51.8704</INCLINATION><RA_OF_ASC_NODE>107.9366</RA_OF_ASC_NODE><ARG_OF_PERICENTER>295.6862</ARG_OF_PERICENTER><MEAN_ANOMALY>64.3884</MEAN_ANOMALY></meanElements><tleParameters><EPHEMERIS_TYPE>0</EPHEMERIS_TYPE><CLASSIFICATION_TYPE>U</CLASSIFICATION_TYPE><NORAD_CAT_ID>65775</NORAD_CAT_ID><ELEMENT_SET_NO>999</ELEMENT_SET_NO><REV_AT_EPOCH>1065</REV_AT_EPOCH><BSTAR>.13860781E-2</BSTAR><MEAN_MOTION_DOT>.5349E-3</MEAN_MOTION_DOT><MEAN_MOTION_DDOT>0</MEAN_MOTION_DDOT></tleParameters></data></segment></body></omm>
<omm id="CCSDS_OMM_VERS" version="2.0">
<header><CREATION_DATE/><ORIGINATOR/></header><body><segment><metadata><OBJECT_NAME>KUIPER-00158</OBJECT_NAME><OBJECT_ID>2025-217Q</OBJECT_ID><CENTER_NAME>EARTH</CENTER_NAME><REF_FRAME>TEME</REF_FRAME><TIME_SYSTEM>UTC</TIME_SYSTEM><MEAN_ELEMENT_THEORY>SGP4</MEAN_ELEMENT_THEORY></metadata><data><meanElements><EPOCH>2025-12-04T08:00:01.999872</EPOCH><MEAN_MOTION>15.05507414</MEAN_MOTION><ECCENTRICITY>.00038729</ECCENTRICITY><INCLINATION>51.8824</INCLINATION><RA_OF_ASC_NODE>108.8501</RA_OF_ASC_NODE><ARG_OF_PERICENTER>322.0614</ARG_OF_PERICENTER><MEAN_ANOMALY>296.0848</MEAN_ANOMALY></meanElements><tleParameters><EPHEMERIS_TYPE>0</EPHEMERIS_TYPE><CLASSIFICATION_TYPE>U</CLASSIFICATION_TYPE><NORAD_CAT_ID>65776</NORAD_CAT_ID><ELEMENT_SET_NO>999</ELEMENT_SET_NO><REV_AT_EPOCH>585</REV_AT_EPOCH><BSTAR>-.86381622E-1</BSTAR><MEAN_MOTION_DOT>-.1155961E-1</MEAN_MOTION_DOT><MEAN_MOTION_DDOT>0</MEAN_MOTION_DDOT></tleParameters></data></segment></body></omm>

</ndm>
